NORAD_CAT_ID,OBJECT_NAME,OBJECT_TYPE,EPOCH,MEAN_MOTION,ECCENTRICITY,INCLINATION,RA_OF_ASC_NODE,ARG_OF_PERICENTER,MEAN_ANOMALY,BSTAR,MEAN_MOTION_DOT,MEAN_MOTION_DDOT,TLE_LINE0,TLE_LINE1,TLE_LINE2,SEMIMAJOR_AXIS,PERIOD,APOGEE,PERIGEE,DECAYED
53146.0,STARLINK-4099,PAYLOAD,2023-04-02 21:13:45,15.08856869,8.36e-05,53.2165,305.6439,98.333,261.7757,0.00068072,0.00010567,0.0,0 STARLINK-4099,1 53146U 22083Q   23092.88454926  .00010567  00000-0  68072-3 0  9991,2 53146  53.2165 305.6439 0000836  98.3330 261.7757 15.08856869 39414,6917.829,95.436,540.272,539.115,0.0
53146.0,STARLINK-4099,PAYLOAD,2023-04-03 00:24:31,15.08862032,7.78e-05,53.216,305.0482,94.3178,265.7903,0.00073327,0.00011408,0.0,0 STARLINK-4099,1 53146U 22083Q   23093.01702682  .00011408  00000-0  73327-3 0  9996,2 53146  53.2160 305.0482 0000778  94.3178 265.7903 15.08862032 40061,6917.813,95.436,540.216,539.14,0.0
53146.0,STARLINK-4099,PAYLOAD,2023-04-03 13:07:36,15.0885219,0.0001512,53.2162,302.6698,97.3543,262.7621,0.00022277,3.26e-05,0.0,0 STARLINK-4099,1 53146U 22083Q   23093.54694716  .00003260  00000-0  22277-3 0  9997,2 53146  53.2162 302.6698 0001512  97.3543 262.7621 15.08852190 40148,6917.843,95.437,540.754,538.662,0.0
53146.0,STARLINK-4099,PAYLOAD,2023-04-03 21:04:31,15.08849029,0.0001491,53.2161,301.1823,93.1011,267.0151,0.00021166,3.083e-05,0.0,0 STARLINK-4099,1 53146U 22083Q   23093.87814711  .00003083  00000-0  21166-3 0  9991,2 53146  53.2161 301.1823 0001491  93.1011 267.0151 15.08849029 39568,6917.853,95.437,540.749,538.686,0.0
53146.0,STARLINK-4099,PAYLOAD,2023-04-04 00:15:18,15.08847415,8.81e-05,53.2143,300.5862,80.9611,279.1481,9.884e-05,1.286e-05,0.0,0 STARLINK-4099,1 53146U 22083Q   23094.01062708  .00001286  00000-0  98840-4 0  9996,2 53146  53.2143 300.5862 0000881  80.9611 279.1481 15.08847415 40217,6917.858,95.437,540.332,539.113,0.0
53146.0,STARLINK-4099,PAYLOAD,2023-04-04 20:55:19,15.08836579,0.0001096,53.2147,296.7212,69.5913,290.5197,5.5121e-05,5.89e-06,0.0,0 STARLINK-4099,1 53146U 22083Q   23094.87175127  .00000589  00000-0  55121-4 0  9990,2 53146  53.2147 296.7212 0001096  69.5913 290.5197 15.08836579 39716,6917.891,95.438,540.514,538.998,0.0
53146.0,STARLINK-4099,PAYLOAD,2023-04-05 00:06:05,15.08839058,0.0001082,53.2155,296.1264,72.4112,287.6998,4.7765e-06,-2.12e-06,0.0,0 STARLINK-4099,1 53146U 22083Q   23095.00423109 -.00000212  00000-0  47765-5 0  9992,2 53146  53.2155 296.1264 0001082  72.4112 287.6998 15.08839058 40369,6917.883,95.438,540.497,539.0,0.0
53146.0,STARLINK-4099,PAYLOAD,2023-04-05 20:46:06,15.08839437,0.0001315,53.2158,292.2623,79.1761,280.938,0.0001566,2.205e-05,0.0,0 STARLINK-4099,1 53146U 22083Q   23095.86535674  .00002205  00000-0  15660-3 0  9997,2 53146  53.2158 292.2623 0001315  79.1761 280.9380 15.08839437 39866,6917.882,95.438,540.657,538.837,0.0
53146.0,STARLINK-4099,PAYLOAD,2023-04-05 23:56:52,15.08845892,0.0001063,53.216,291.6661,69.1014,291.0092,0.00019892,2.88e-05,0.0,0 STARLINK-4099,1 53146U 22083Q   23095.99783174  .00002880  00000-0  19892-3 0  9991,2 53146  53.2160 291.6661 0001063  69.1014 291.0092 15.08845892 39881,6917.862,95.437,540.463,538.992,0.0
53146.0,STARLINK-4099,PAYLOAD,2023-04-06 19:01:30,15.08844601,8.71e-05,53.2161,288.0973,65.882,294.2263,0.00011345,1.519e-05,0.0,0 STARLINK-4099,1 53146U 22083Q   23096.79271231  .00001519  00000-0  11345-3 0  9999,2 53146  53.2161 288.0973 0000871  65.8820 294.2263 15.08844601 40639,6917.866,95.437,540.334,539.129,0.0
53146.0,STARLINK-4099,PAYLOAD,2023-04-06 22:12:16,15.08848756,0.0001093,53.2146,287.5033,66.0728,294.0378,0.00017709,2.532e-05,0.0,0 STARLINK-4099,1 53146U 22083Q   23096.92519052  .00002532  00000-0  17709-3 0  9996,2 53146  53.2146 287.5033 0001093  66.0728 294.0378 15.08848756 40023,6917.854,95.437,540.475,538.963,0.0
53146.0,STARLINK-4099,PAYLOAD,2023-04-07 12:30:44,15.08845392,0.0001324,53.2162,284.8281,61.222,298.8905,8.7795e-05,1.11e-05,0.0,0 STARLINK-4099,1 53146U 22083Q   23097.52135378  .00001110  00000-0  87795-4 0  9992,2 53146  53.2162 284.8281 0001324  61.2220 298.8905 15.08845392 40118,6917.864,95.437,540.645,538.813,0.0
53146.0,STARLINK-4099,PAYLOAD,2023-04-07 22:03:03,15.08849869,0.0001036,53.2163,283.043,70.1858,289.9246,0.00015331,2.154e-05,0.0,0 STARLINK-4099,1 53146U 22083Q   23097.91878974  .00002154  00000-0  15331-3 0  9996,2 53146  53.2163 283.0430 0001036  70.1858 289.9246 15.08849869 40800,6917.85,95.437,540.432,538.999,0.0
53146.0,STARLINK-4099,PAYLOAD,2023-04-08 12:21:32,15.08838449,0.0001238,53.2168,280.3701,69.9431,290.1695,5.4638e-05,5.82e-06,0.0,0 STARLINK-4099,1 53146U 22083Q   23098.51495647  .00000582  00000-0  54638-4 0  9992,2 53146  53.2168 280.3701 0001238  69.9431 290.1695 15.08838449 40896,6917.885,95.438,540.607,538.894,0.0
53146.0,STARLINK-4099,PAYLOAD,2023-04-09 12:12:19,15.08833146,0.0001038,53.2179,275.9092,65.5038,294.6062,0.00014086,1.954e-05,0.0,0 STARLINK-4099,1 53146U 22083Q   23099.50855885  .00001954  00000-0  14086-3 0  9992,2 53146  53.2179 275.9092 0001038  65.5038 294.6062 15.08833146 40418,6917.901,95.438,540.484,539.048,0.0
53146.0,STARLINK-4099,PAYLOAD,2023-04-10 04:06:10,15.08840154,0.0001306,53.2161,272.9302,82.884,277.2301,-7.8206e-05,-1.532e-05,0.0,0 STARLINK-4099,1 53146U 22083Q   23100.17095990 -.00001532  00000-0 -78206-4 0  9990,2 53146  53.2161 272.9302 0001306  82.8840 277.2301 15.08840154 41142,6917.88,95.438,540.648,538.841,0.0
53146.0,STARLINK-4099,PAYLOAD,2023-04-10 13:38:29,15.08836883,7.39e-05,53.2172,271.1478,100.8478,259.2597,0.00010182,1.333e-05,0.0,0 STARLINK-4099,1 53146U 22083Q   23100.56839893  .00001333  00000-0  10182-3 0  9996,2 53146  53.2172 271.1478 0000739 100.8478 259.2597 15.08836883 40573,6917.89,95.438,540.266,539.244,0.0
53146.0,STARLINK-4099,PAYLOAD,2023-04-10 18:24:38,15.08849244,9.1e-05,53.2168,270.2558,85.9906,274.1191,0.00020837,3.031e-05,0.0,0 STARLINK-4099,1 53146U 22083Q   23100.76710980  .00003031  00000-0  20837-3 0  9998,2 53146  53.2168 270.2558 0000910  85.9906 274.1191 15.08849244 41232,6917.852,95.437,540.347,539.088,0.0
53146.0,STARLINK-4099,PAYLOAD,2023-04-10 20:00:01,15.0885278,0.0001046,53.2162,269.9574,87.9948,272.1164,0.00028031,4.178e-05,0.0,0 STARLINK-4099,1 53146U 22083Q   23100.83334943  .00004178  00000-0  28031-3 0  9994,2 53146  53.2162 269.9574 0001046  87.9948 272.1164 15.08852780 40616,6917.841,95.437,540.43,538.983,0.0
53146.0,STARLINK-4099,PAYLOAD,2023-04-11 03:56:57,15.08841918,0.0001249,53.216,268.4725,93.1834,266.9301,0.00010618,1.402e-05,0.0,0 STARLINK-4099,1 53146U 22083Q   23101.16455497  .00001402  00000-0  10618-3 0  9998,2 53146  53.2160 268.4725 0001249  93.1834 266.9301 15.08841918 41294,6917.875,95.437,540.604,538.875,0.0
53146.0,STARLINK-4099,PAYLOAD,2023-04-11 11:53:53,15.08842623,0.0001384,53.2171,266.9861,95.3736,264.7414,3.6096e-05,2.87e-06,0.0,0 STARLINK-4099,1 53146U 22083Q   23101.49575529  .00000287  00000-0  36096-4 0  9992,2 53146  53.2171 266.9861 0001384  95.3736 264.7414 15.08842623 40716,6917.872,95.437,540.695,538.78,0.0
53146.0,STARLINK-4099,PAYLOAD,2023-04-12 11:44:40,15.0883861,9.68e-05,53.2196,262.5253,100.9469,259.1632,0.00010899,1.447e-05,0.0,0 STARLINK-4099,1 53146U 22083Q   23102.48935569  .00001447  00000-0  10899-3 0  9997,2 53146  53.2196 262.5253 0000968 100.9469 259.1632 15.08838610 40860,6917.885,95.438,540.419,539.08,0.0
53146.0,STARLINK-4099,PAYLOAD,2023-04-13 10:00:04,15.08835961,0.0001683,53.2164,258.3626,78.4844,281.6337,9.3585e-05,1.202e-05,0.0,0 STARLINK-4099,1 53146U 22083Q   23103.41672143  .00001202  00000-0  93585-4 0  9990,2 53146  53.2164 258.3626 0001683  78.4844 281.6337 15.08835961 41008,6917.893,95.438,540.922,538.593,0.0
53146.0,STARLINK-4099,PAYLOAD,2023-04-13 16:21:37,15.08840176,0.0001756,53.2168,257.1735,77.9729,282.146,0.00015084,2.113e-05,0.0,0 STARLINK-4099,1 53146U 22083Q   23103.68168151  .00002113  00000-0  15084-3 0  9997,2 53146  53.2168 257.1735 0001756  77.9729 282.1460 15.08840176 41677,6917.88,95.438,540.96,538.53,0.0
53146.0,STARLINK-4099,PAYLOAD,2023-04-14 09:50:51,15.08841445,0.0001303,53.2156,253.9005,74.1729,285.9407,0.00021471,3.131e-05,0.0,0 STARLINK-4099,1 53146U 22083Q   23104.41032220  .00003131  00000-0  21471-3 0  9994,2 53146  53.2156 253.9005 0001303  74.1729 285.9407 15.08841445 41150,6917.876,95.437,540.642,538.84,0.0
53146.0,STARLINK-4099,PAYLOAD,2023-04-15 12:52:24,15.08846366,0.0001571,53.2136,248.845,77.5589,282.5579,0.00019972,2.893e-05,0.0,0 STARLINK-4099,1 53146U 22083Q   23105.53639803  .00002893  00000-0  19972-3 0  9995,2 53146  53.2136 248.8450 0001571  77.5589 282.5579 15.08846366 41951,6917.861,95.437,540.813,538.639,0.0
53146.0,STARLINK-4099,PAYLOAD,2023-04-15 16:03:10,15.08852416,0.0001325,53.2162,248.2507,77.2757,282.8383,0.0002454,3.621e-05,0.0,0 STARLINK-4099,1 53146U 22083Q   23105.66887397  .00003621  00000-0  24540-3 0  9999,2 53146  53.2162 248.2507 0001325  77.2757 282.8383 15.08852416 41340,6917.842,95.437,540.624,538.791,0.0
53146.0,STARLINK-4099,PAYLOAD,2023-04-16 12:43:11,15.08839899,0.0001387,53.2141,244.3853,68.3407,291.7732,-4.0456e-05,-9.32e-06,0.0,0 STARLINK-4099,1 53146U 22083Q   23106.52999956 -.00000932  00000-0 -40456-4 0  9999,2 53146  53.2141 244.3853 0001387  68.3407 291.7732 15.08839899 42101,6917.881,95.438,540.705,538.786,0.0
53146.0,STARLINK-4099,PAYLOAD,2023-04-16 15:53:57,15.08844942,0.0001309,53.216,243.7907,71.0527,289.0607,-2.1996e-05,-6.38e-06,0.0,0 STARLINK-4099,1 53146U 22083Q   23106.66247632 -.00000638  00000-0 -21996-4 0  9992,2 53146  53.2160 243.7907 0001309  71.0527 289.0607 15.08844942 41490,6917.865,95.437,540.636,538.825,0.0
53146.0,STARLINK-4099,PAYLOAD,2023-04-17 14:09:22,15.0882997,0.0001139,53.2176,239.6274,102.3261,257.7859,8.8194e-05,1.116e-05,0.0,0 STARLINK-4099,1 53146U 22083Q   23107.58984603  .00001116  00000-0  88194-4 0  9993,2 53146  53.2176 239.6274 0001139 102.3261 257.7859 15.08829970 41633,6917.911,95.438,540.564,538.988,0.0
